{
  "type": "FeatureCollection",
  "features": [
    {
      "type": "Feature",
      "properties": {
        "norad_id": 39160,
        "name": "VNREDSAT 1",
        "group": "resource",
        "lat": 52.14232963763393,
        "lon": 27.812393911611654,
        "alt_km": 671.6882758011216,
        "timestamp": "2025-12-08T17:43:04.550961+00:00",
        "meta_object_name": "VNREDSAT 1",
        "meta_object_id": "2013-021B",
        "meta_epoch": "2025-12-08T06:00:08.492256",
        "meta_mean_motion": 14.6491327,
        "meta_eccentricity": 0.00013099,
        "meta_inclination": 97.9379,
        "meta_ra_of_asc_node": 37.6823,
        "meta_arg_of_pericenter": 82.9818,
        "meta_mean_anomaly": 277.1534,
        "meta_ephemeris_type": 0,
        "meta_classification_type": "U",
        "meta_norad_cat_id": 39160,
        "meta_element_set_no": 999,
        "meta_rev_at_epoch": 67233,
        "meta_bstar": 0.00026365461,
        "meta_mean_motion_dot": 1.364e-05,
        "meta_mean_motion_ddot": 0,
        "tle_line1": "1 39160U 13021B   25342.25009829  .00001364  00000+0  26365-3 0  9995",
        "tle_line2": "2 39160  97.9379  37.6823 0001309  82.9818 277.1534 14.64913270672330"
      },
      "geometry": {
        "type": "Point",
        "coordinates": [
          27.812393911611654,
          52.14232963763393
        ]
      }
    },
    {
      "type": "Feature",
      "properties": {
        "norad_id": 39227,
        "name": "ARIRANG-5 (KOMPSAT-5)",
        "group": "resource",
        "lat": -75.74366700543975,
        "lon": -161.1291726326424,
        "alt_km": 562.4760686103873,
        "timestamp": "2025-12-08T17:43:04.550971+00:00",
        "meta_object_name": "ARIRANG-5 (KOMPSAT-5)",
        "meta_object_id": "2013-042A",
        "meta_epoch": "2025-12-08T05:17:39.922944",
        "meta_mean_motion": 15.04529133,
        "meta_eccentricity": 0.00038245,
        "meta_inclination": 97.6148,
        "meta_ra_of_asc_node": 166.5895,
        "meta_arg_of_pericenter": 69.7807,
        "meta_mean_anomaly": 290.383,
        "meta_ephemeris_type": 0,
        "meta_classification_type": "U",
        "meta_norad_cat_id": 39227,
        "meta_element_set_no": 999,
        "meta_rev_at_epoch": 67514,
        "meta_bstar": 0.00019501537,
        "meta_mean_motion_dot": 2.672e-05,
        "meta_mean_motion_ddot": 0,
        "tle_line1": "1 39227U 13042A   25342.22060096  .00002672  00000+0  19502-3 0  9990",
        "tle_line2": "2 39227  97.6148 166.5895 0003824  69.7807 290.3830 15.04529133675145"
      },
      "geometry": {
        "type": "Point",
        "coordinates": [
          -161.1291726326424,
          -75.74366700543975
        ]
      }
    },
    {
      "type": "Feature",
      "properties": {
        "norad_id": 39418,
        "name": "SKYSAT-A",
        "group": "resource",
        "lat": -13.159481714060473,
        "lon": -148.67560619825747,
        "alt_km": 528.5871018024491,
        "timestamp": "2025-12-08T17:43:04.550982+00:00",
        "meta_object_name": "SKYSAT-A",
        "meta_object_id": "2013-066C",
        "meta_epoch": "2025-12-08T02:33:54.556416",
        "meta_mean_motion": 15.11549632,
        "meta_eccentricity": 0.00206357,
        "meta_inclination": 97.4108,
        "meta_ra_of_asc_node": 32.4561,
        "meta_arg_of_pericenter": 253.7759,
        "meta_mean_anomaly": 106.1201,
        "meta_ephemeris_type": 0,
        "meta_classification_type": "U",
        "meta_norad_cat_id": 39418,
        "meta_element_set_no": 999,
        "meta_rev_at_epoch": 65960,
        "meta_bstar": 0.00031260289,
        "meta_mean_motion_dot": 5.263e-05,
        "meta_mean_motion_ddot": 0,
        "tle_line1": "1 39418U 13066C   25342.10688144  .00005263  00000+0  31260-3 0  9999",
        "tle_line2": "2 39418  97.4108  32.4561 0020635 253.7759 106.1201 15.11549632659605"
      },
      "geometry": {
        "type": "Point",
        "coordinates": [
          -148.67560619825747,
          -13.159481714060473
        ]
      }
    },
    {
      "type": "Feature",
      "properties": {
        "norad_id": 39419,
        "name": "DUBAISAT-2",
        "group": "resource",
        "lat": 21.976081207462567,
        "lon": -29.75592755581895,
        "alt_km": 536.009069049047,
        "timestamp": "2025-12-08T17:43:04.550993+00:00",
        "meta_object_name": "DUBAISAT-2",
        "meta_object_id": "2013-066D",
        "meta_epoch": "2025-12-08T06:28:28.714656",
        "meta_mean_motion": 15.08288281,
        "meta_eccentricity": 0.00109948,
        "meta_inclination": 97.4446,
        "meta_ra_of_asc_node": 332.8148,
        "meta_arg_of_pericenter": 337.2549,
        "meta_mean_anomaly": 22.8191,
        "meta_ephemeris_type": 0,
        "meta_classification_type": "U",
        "meta_norad_cat_id": 39419,
        "meta_element_set_no": 999,
        "meta_rev_at_epoch": 65759,
        "meta_bstar": 0.00048025875,
        "meta_mean_motion_dot": 7.398e-05,
        "meta_mean_motion_ddot": 0,
        "tle_line1": "1 39419U 13066D   25342.26977679  .00007398  00000+0  48026-3 0  9990",
        "tle_line2": "2 39419  97.4446 332.8148 0010994 337.2549  22.8191 15.08288281657595"
      },
      "geometry": {
        "type": "Point",
        "coordinates": [
          -29.75592755581895,
          21.976081207462567
        ]
      }
    },
    {
      "type": "Feature",
      "properties": {
        "norad_id": 39574,
        "name": "GPM-CORE",
        "group": "resource",
        "lat": -19.143100151255677,
        "lon": -143.2455850863997,
        "alt_km": 431.7637031453396,
        "timestamp": "2025-12-08T17:43:04.551004+00:00",
        "meta_object_name": "GPM-CORE",
        "meta_object_id": "2014-009C",
        "meta_epoch": "2025-12-08T05:23:04.613280",
        "meta_mean_motion": 15.45399454,
        "meta_eccentricity": 0.00105033,
        "meta_inclination": 64.9737,
        "meta_ra_of_asc_node": 227.8099,
        "meta_arg_of_pericenter": 270.08,
        "meta_mean_anomaly": 89.9137,
        "meta_ephemeris_type": 0,
        "meta_classification_type": "U",
        "meta_norad_cat_id": 39574,
        "meta_element_set_no": 999,
        "meta_rev_at_epoch": 66831,
        "meta_bstar": 0.00037003743,
        "meta_mean_motion_dot": 0.0001761,
        "meta_mean_motion_ddot": 0,
        "tle_line1": "1 39574U 14009C   25342.22435895  .00017610  00000+0  37004-3 0  9997",
        "tle_line2": "2 39574  64.9737 227.8099 0010503 270.0800  89.9137 15.45399454668319"
      },
      "geometry": {
        "type": "Point",
        "coordinates": [
          -143.2455850863997,
          -19.143100151255677
        ]
      }
    },
    {
      "type": "Feature",
      "properties": {
        "norad_id": 39634,
        "name": "SENTINEL-1A",
        "group": "resource",
        "lat": -3.9894218338697076,
        "lon": -11.386443798413406,
        "alt_km": 699.2725165616575,
        "timestamp": "2025-12-08T17:43:04.551015+00:00",
        "meta_object_name": "SENTINEL-1A",
        "meta_object_id": "2014-016A",
        "meta_epoch": "2025-12-08T06:12:58.914144",
        "meta_mean_motion": 14.59200089,
        "meta_eccentricity": 0.00012469,
        "meta_inclination": 98.1803,
        "meta_ra_of_asc_node": 347.5666,
        "meta_arg_of_pericenter": 89.2628,
        "meta_mean_anomaly": 270.8714,
        "meta_ephemeris_type": 0,
        "meta_classification_type": "U",
        "meta_norad_cat_id": 39634,
        "meta_element_set_no": 999,
        "meta_rev_at_epoch": 62217,
        "meta_bstar": 9.3038675e-05,
        "meta_mean_motion_dot": 3.93e-06,
        "meta_mean_motion_ddot": 0,
        "tle_line1": "1 39634U 14016A   25342.25901521  .00000393  00000+0  93039-4 0  9990",
        "tle_line2": "2 39634  98.1803 347.5666 0001246  89.2628 270.8714 14.59200089622176"
      },
      "geometry": {
        "type": "Point",
        "coordinates": [
          -11.386443798413406,
          -3.9894218338697076
        ]
      }
    },
    {
      "type": "Feature",
      "properties": {
        "norad_id": 39731,
        "name": "KAZEOSAT 1",
        "group": "resource",
        "lat": -36.772728613895445,
        "lon": -131.56169879836773,
        "alt_km": 758.4006278757461,
        "timestamp": "2025-12-08T17:43:04.551025+00:00",
        "meta_object_name": "KAZEOSAT 1",
        "meta_object_id": "2014-024A",
        "meta_epoch": "2025-12-08T06:43:21.612864",
        "meta_mean_motion": 14.42059009,
        "meta_eccentricity": 0.00010799,
        "meta_inclination": 98.344,
        "meta_ra_of_asc_node": 54.2876,
        "meta_arg_of_pericenter": 99.973,
        "meta_mean_anomaly": 260.1581,
        "meta_ephemeris_type": 0,
        "meta_classification_type": "U",
        "meta_norad_cat_id": 39731,
        "meta_element_set_no": 999,
        "meta_rev_at_epoch": 61104,
        "meta_bstar": 0.00016708421,
        "meta_mean_motion_dot": 5.06e-06,
        "meta_mean_motion_ddot": 0,
        "tle_line1": "1 39731U 14024A   25342.28011126  .00000506  00000+0  16708-3 0  9996",
        "tle_line2": "2 39731  98.3440  54.2876 0001079  99.9730 260.1581 14.42059009611048"
      },
      "geometry": {
        "type": "Point",
        "coordinates": [
          -131.56169879836773,
          -36.772728613895445
        ]
      }
    }
  ]
}